ONEWEB-0319             
1 49105U 21075AG  25277.80005618 -.00000306  00000+0 -82154-3 0  9998
2 49105  87.9076  56.6651 0001975  85.3109 274.8248 13.17648227199976
ONEWEB-0323             
1 49106U 21075AH  25277.79868537  .00000494  00000+0  13377-2 0  9990
2 49106  87.8941  41.3772 0002179  84.0060 276.1317 13.12443177201058
ONEWEB-0329             
1 49107U 21075AJ  25277.80851074  .00000043  00000+0  78498-4 0  9998
2 49107  87.9076  56.6671 0001879  94.1813 265.9533 13.17650279199959
ONEWEB-0330             
1 49108U 21075AK  25277.80934788  .00000064  00000+0  13266-3 0  9997
2 49108  87.9077  56.6710 0001894  97.7123 262.4224 13.17649732199990
ONEWEB-0292             
1 49186U 21083A   25278.19915047 -.00000053  00000+0 -17969-3 0  9996
2 49186  87.9050  10.9305 0001836  95.8189 264.3149 13.13469878197450
ONEWEB-0303             
1 49187U 21083B   25278.20723010  .00000033  00000+0  51104-4 0  9992
2 49187  87.9223  26.0879 0001845  94.2134 265.9209 13.18685682196372
ONEWEB-0306             
1 49188U 21083C   25278.04558265 -.00000019  00000+0 -81737-4 0  9994
2 49188  87.9218  26.1054 0001840 106.9514 253.1820 13.18685730196395
ONEWEB-0307             
1 49189U 21083D   25278.19322193  .00000157  00000+0  39514-3 0  9996
2 49189  87.9039  10.9273 0001774 102.9542 257.1785 13.13475313197455
